satname,norad_id,inclination_deg,eccentricity,mean_motion_rev_per_day,perigee_km,apogee_km,l1,l2
STARLINK-1279,45360,53.0525,0.0001076,15.06383493,546.5169770292823,548.0073229263571,1 45360U 20019A   25278.28825880  .00005920  00000+0  41616-3 0  9991,2 45360  53.0525 114.2414 0001076  85.8645 274.2467 15.06383493306718
STARLINK-1301,45361,53.0511,0.0002973,15.0641031,545.1210627213641,549.238856185455,1 45361U 20019B   25278.54163078  .00016934  00000+0  11526-2 0  9998,2 45361  53.0511 123.1048 0002973 100.3147 259.8178 15.06410310306620
STARLINK-1306,45362,53.051,0.0009151,15.60141806,381.056095926484,393.4381019043185,1 45362U 20019C   25277.95404704  .00151639  00000+0  18012-2 0  9996,2 45362  53.0510 124.1204 0009151 138.1127 222.0587 15.60141806306556
STARLINK-1262,45366,53.0527,8.28e-05,15.06403704,546.6267878143763,547.7736236556466,1 45366U 20019G   25278.04221014  .00007877  00000+0  54706-3 0  9997,2 45366  53.0527 145.3447 0000828  84.9280 275.1804 15.06403704306270
STARLINK-1273,45367,53.0539,0.0001252,15.06386718,546.3852069183595,548.11932439048,1 45367U 20019H   25278.32972253  .00006678  00000+0  46694-3 0  9992,2 45367  53.0539 144.0579 0001252  84.5689 275.5443 15.06386718306310
STARLINK-1276,45368,53.0525,0.0001339,15.06393536,546.3040624134919,548.1586760627742,1 45368U 20019J   25277.90215315  .00000666  00000+0  63636-4 0  9992,2 45368  53.0525 145.9766 0001339 101.4398 258.6741 15.06393536306258
STARLINK-1277,45369,53.0528,0.0001414,15.06400636,546.2303646800956,548.1888527010324,1 45369U 20019K   25278.02755059  .00005407  00000+0  38161-3 0  9993,2 45369  53.0528 146.0436 0001414  89.3610 270.7541 15.06400636306267
STARLINK-1281,45370,53.0527,0.0001037,15.06399962,546.4935157452701,547.9298330603415,1 45370U 20019L   25278.35552532  .00012239  00000+0  83910-3 0  9995,2 45370  53.0527 143.9424 0001037  86.9091 273.2016 15.06399962306329
STARLINK-1300,45374,53.0506,0.0001325,15.06393545,546.313730348963,548.1489529595019,1 45374U 20019Q   25278.04590310 -.00000172  00000+0  73376-5 0  9992,2 45374  53.0506 145.3304 0001325 101.5067 258.6071 15.06393545306273
STARLINK-1302,45375,53.0532,0.0001361,15.06396085,546.2810153036098,548.166098447191,1 45375U 20019R   25278.32602596  .00005614  00000+0  39553-3 0  9996,2 45375  53.0532 144.0752 0001361  88.6839 271.4305 15.06396085306318
STARLINK-1304,45376,53.0526,0.0001205,15.06390749,546.4054031482065,548.0744189837733,1 45376U 20019S   25278.34446096 -.00001154  00000+0 -58590-4 0  9990,2 45376  53.0526 143.9911 0001205  91.8610 268.2517 15.06390749306317
STARLINK-1305,45377,53.0524,9.89e-05,15.06437956,546.4103252398554,547.780136175089,1 45377U 20019T   25278.03851363  .00020354  00000+0  13800-2 0  9998,2 45377  53.0524 145.3628 0000989  75.5777 284.5321 15.06437956306279
STARLINK-1319,45379,53.0531,0.0001615,15.06401284,546.0891795094421,548.3260658225627,1 45379U 20019V   25278.36288450  .00002287  00000+0  17238-3 0  9992,2 45379  53.0531 143.9103 0001615  87.2410 272.8764 15.06401284306324
STARLINK-1266,45383,53.0548,0.0001176,15.06417076,546.3448081162269,547.9736377878662,1 45383U 20019Z   25278.29836927  .00005055  00000+0  35786-3 0  9991,2 45383  53.0548 124.1989 0001176  87.3441 272.7683 15.06417076306580
STARLINK-1267,45384,53.0554,0.0001447,15.06396056,546.2215460711695,548.2257454420524,1 45384U 20019AA  25278.01834515  .00002019  00000+0  15440-3 0  9995,2 45384  53.0554 126.1126 0001447  90.6359 269.4795 15.06396056306535
STARLINK-1272,45386,53.0545,0.0002168,15.06398091,545.7159919186915,548.7188255903284,1 45386U 20019AC  25278.29101242  .00002376  00000+0  17836-3 0  9998,2 45386  53.0545 124.2322 0002168  84.9429 275.1807 15.06398091306583
STARLINK-1274,45387,53.0352,0.0007867,15.2609866,482.0871610371578,492.8895359604858,1 45387U 20019AD  25277.83112296  .00021170  00000+0  82043-3 0  9994,2 45387  53.0352 115.5743 0007867 122.4205 237.7554 15.26098660306664
STARLINK-1280,45388,53.052,0.0001318,15.06388194,546.3349761552427,548.1605075731968,1 45388U 20019AE  25278.34815825  .00016487  00000+0  11235-2 0  9999,2 45388  53.0520 143.9759 0001318  91.7076 268.4064 15.06388194306303
STARLINK-1283,45389,53.0535,0.0001416,15.06399226,546.2333004461088,548.1945598295242,1 45389U 20019AF  25276.60285572  .00006916  00000+0  48275-3 0  9998,2 45389  53.0535 131.8073 0001416  98.1649 261.9501 15.06399226306336
STARLINK-1284,45390,53.0531,0.0001491,15.06393187,546.1998662973865,548.265011464061,1 45390U 20019AG  25278.10303426 -.00000117  00000+0  11019-4 0  9991,2 45390  53.0531 125.0755 0001491  79.9228 280.1929 15.06393187306550
STARLINK-1292,45394,53.0485,0.0004189,15.79225264,329.82337531900794,335.44565969637733,1 45394U 20019AL  25278.58335647  .00209726  00000+0  11212-2 0  9996,2 45394  53.0485  87.9900 0004189 239.9554 209.7268 15.79225264  5714
STARLINK-1297,45395,53.0499,0.0001417,15.06397744,546.2371493915634,548.199795132402,1 45395U 20019AM  25277.87449758 -.00000274  00000+0  48089-6 0  9991,2 45395  53.0499 126.0996 0001417  85.4203 274.6948 15.06397744305707
STARLINK-1307,45397,53.0551,0.0001472,15.06396916,546.2015972711588,548.2404226692934,1 45397U 20019AP  25278.26521787  .00002089  00000+0  15911-3 0  9990,2 45397  53.0551 124.3452 0001472  89.9383 270.1774 15.06396916306401
STARLINK-1312,45398,53.0473,0.0005383,15.78834967,330.12742896205236,337.3534362059736,1 45398U 20019AQ  25278.58335647  .00272954  00000+0  14727-2 0  9997,2 45398  53.0473  87.5578 0005383 154.7688  83.8303 15.78834967  5863
STARLINK-1255,45399,53.0526,0.0002282,15.06369897,545.7234352387768,548.8842064294058,1 45399U 20019AR  25277.96758970 -.00001924  00000+0 -11033-3 0  9994,2 45399  53.0526 115.6831 0002282  97.1360 262.9889 15.06369897306487
STARLINK-1259,45403,53.0446,0.000191,15.92487544,294.04965299788273,296.5989152084112,1 45403U 20019AV  25278.58335647  .00336190  54167-4  97390-3 0  9993,2 45403  53.0446  68.2035 0001910 105.3677 109.6405 15.92487544  6015
STARLINK-1260,45404,53.0479,0.0002153,15.06394134,545.7385050264638,548.7205678570554,1 45404U 20019AW  25278.53152634 -.00001148  00000+0 -58184-4 0  9997,2 45404  53.0479 113.1481 0002153  85.6723 274.4512 15.06394134306479
STARLINK-1263,45405,53.053,0.0001158,15.06482174,546.1577917117456,547.7616441116152,1 45405U 20019AX  25277.91960465  .00019486  00000+0  13205-2 0  9993,2 45405  53.0530 115.9005 0001158 113.5953 246.5158 15.06482174306388
STARLINK-1265,45406,53.0553,0.0001302,15.06397281,546.318209826959,548.1215727614517,1 45406U 20019AY  25278.25875969  .00001254  00000+0  10304-3 0  9998,2 45406  53.0553 114.3758 0001302  88.6379 271.4759 15.06397281306431
STARLINK-1278,45408,53.0526,0.0001358,15.06386498,546.312471978883,548.1934078865688,1 45408U 20019BA  25278.02008976  .00000152  00000+0  29085-4 0  9994,2 45408  53.0526 145.4489 0001358  86.6532 273.4612 15.06386498305986
STARLINK-1296,45412,53.052,0.0001307,15.06403876,546.2945370781035,548.104820085885,1 45412U 20019BE  25278.26245191  .00002082  00000+0  15860-3 0  9996,2 45412  53.0520 114.3584 0001307  92.3064 267.8075 15.06403876306435
STARLINK-1298,45413,53.0492,0.0009664,15.45751131,422.5933328054907,435.75049947861044,1 45413U 20019BF  25278.00002315  .00196861  00000+0  39078-2 0  9993,2 45413  53.0492  99.7285 0009664 154.6382 222.4492 15.45751131  5908
STARLINK-1309,45414,53.0525,0.0001244,15.06392897,546.3718116270338,548.0948437645657,1 45414U 20019BG  25278.27719487  .00000972  00000+0  84129-4 0  9994,2 45414  53.0525 114.2935 0001244  98.5030 261.6100 15.06392897306422
STARLINK-1316,45415,53.054,0.0001423,15.06395348,546.2403365562859,548.211294813631,1 45415U 20019BH  25278.43567873 -.00000025  00000+0  17226-4 0  9997,2 45415  53.0540 113.5795 0001423  91.8932 268.2220 15.06395348306488
STARLINK-1318,45416,53.0513,7.77e-05,15.57249176,395.0961017454629,396.14874395977404,1 45416U 20019BJ  25278.20805137  .00052170  00000+0  70530-3 0  9994,2 45416  53.0513  92.0454 0000777 299.3539  60.7394 15.57249176306751
STARLINK-1286,45417,53.0522,0.0001384,15.06399719,546.2539508033278,548.1708875225522,1 45417U 20019BK  25278.34076301 -.00001482  00000+0 -80625-4 0  9992,2 45417  53.0522 144.0093 0001384  93.1306 266.9841 15.06399719306307
STARLINK-1308,45419,53.0524,0.0001328,15.06403845,546.2800888685915,548.1194583156584,1 45419U 20019BM  25278.33709649  .00006431  00000+0  45020-3 0  9997,2 45419  53.0524 144.0251 0001328  91.8987 268.2154 15.06403845306055
STARLINK-1329,45531,53.0525,0.0001583,15.06392343,546.1387392482138,548.3313120315315,1 45531U 20025A   25277.90767046 -.00002396  00000+0 -14201-3 0  9991,2 45531  53.0525  85.9515 0001583  90.8778 269.2393 15.06392343301610
STARLINK-1338,45532,53.0542,0.0001034,15.06390528,546.5245043635341,547.9566724488168,1 45532U 20025B   25277.85237079 -.00004328  00000+0 -27189-3 0  9990,2 45532  53.0542  86.1958 0001034  89.7050 270.4057 15.06390528301608
STARLINK-1350,45535,53.0745,0.0001099,15.3150349,470.57308797872247,472.0785999118216,1 45535U 20025E   25278.51810365  .00015663  00000+0  51854-3 0  9990,2 45535  53.0745  39.3779 0001099 121.3852 238.7255 15.31503490302342
STARLINK-1362,45538,53.053,0.0001471,15.06395743,546.2058843687782,548.2433257529874,1 45538U 20025H   25277.88457325  .00000287  00000+0  38160-4 0  9997,2 45538  53.0530  85.7720 0001471  81.9350 278.1806 15.06395743301617
STARLINK-1368,45540,53.0533,0.0001364,15.063976,546.2742950557649,548.1635321489957,1 45540U 20025K   25277.75654878  .00001161  00000+0  96827-4 0  9994,2 45540  53.0533  86.6274 0001364  91.4789 268.6356 15.06397600301584
STARLINK-1371,45542,53.0538,0.0001401,15.06394592,546.2578890738741,548.1983763840653,1 45542U 20025M   25277.85975113  .00000128  00000+0  27506-4 0  9995,2 45542  53.0538  86.1637 0001401  99.7666 260.3481 15.06394592301604
